[{"OBJECT_NAME":"STARLINK-30457","OBJECT_ID":"2023-146K","EPOCH":"2026-03-09T01:19:36.039936","MEAN_MOTION":15.02534066,"ECCENTRICITY":0.00012621,"INCLINATION":43.0042,"RA_OF_ASC_NODE":316.555,"ARG_OF_PERICENTER":271.3954,"MEAN_ANOMALY":88.6744,"EPHEMERIS_TYPE":0,"CLASSIFICATION_TYPE":"U","NORAD_CAT_ID":57900,"ELEMENT_SET_NO":999,"REV_AT_EPOCH":13591,"BSTAR":-2.0150498e-5,"MEAN_MOTION_DOT":-4.76e-6,"MEAN_MOTION_DDOT":0},{"OBJECT_NAME":"HELIOS 2A","OBJECT_ID":"2004-049A","EPOCH":"2026-03-09T21:12:23.746752","MEAN_MOTION":15.02457036,"ECCENTRICITY":0.00022964,"INCLINATION":98.268,"RA_OF_ASC_NODE":116.0483,"ARG_OF_PERICENTER":298.4853,"MEAN_ANOMALY":61.6139,"EPHEMERIS_TYPE":0,"CLASSIFICATION_TYPE":"U","NORAD_CAT_ID":28492,"ELEMENT_SET_NO":999,"REV_AT_EPOCH":13885,"BSTAR":0.0002328623,"MEAN_MOTION_DOT":3.02e-5,"MEAN_MOTION_DDOT":0}]
